[
    {
        "Altitude(m)": 553498.5469416466,
        "Argument of Periapsis(deg)": 0.006622991110713501,
        "Eccentricity": 0.0,
        "Inclination(deg)": 53.0,
        "Latitude(deg)": 9.471407093423073,
        "Longitude(deg)": -128.59060083630334,
        "Mean Anomaly(deg)": 11.909792867577574,
        "RAAN(deg)": 324.990143368528,
        "Satellite Name": "Starlink Shell 1 1430",
        "Satellite Number": 1430,
        "Semi-Major Axis(m)": 6931778.249405717,
        "Time(s)": 190
    },
    {
        "Altitude(m)": 553487.1590572008,
        "Argument of Periapsis(deg)": 0.0069715695902247375,
        "Eccentricity": 0.0,
        "Inclination(deg)": 53.0,
        "Latitude(deg)": 9.971176696811572,
        "Longitude(deg)": -128.24414507705677,
        "Mean Anomaly(deg)": 12.53662407113432,
        "RAAN(deg)": 324.9896245984505,
        "Satellite Name": "Starlink Shell 1 1430",
        "Satellite Number": 1430,
        "Semi-Major Axis(m)": 6931778.249405717,
        "Time(s)": 200
    },
    {
        "Altitude(m)": 553478.4635743472,
        "Argument of Periapsis(deg)": 0.007320148069735974,
        "Eccentricity": 0.0,
        "Inclination(deg)": 53.0,
        "Latitude(deg)": 10.470485369356322,
        "Longitude(deg)": -127.89650311784344,
        "Mean Anomaly(deg)": 13.163455274691014,
        "RAAN(deg)": 324.98910582837306,
        "Satellite Name": "Starlink Shell 1 1430",
        "Satellite Number": 1430,
        "Semi-Major Axis(m)": 6931778.249405717,
        "Time(s)": 210
    },
    {
        "Altitude(m)": 553472.4416072952,
        "Argument of Periapsis(deg)": 0.007668726549247212,
        "Eccentricity": 0.0,
        "Inclination(deg)": 53.0,
        "Latitude(deg)": 10.969307641082429,
        "Longitude(deg)": -127.54761204304694,
        "Mean Anomaly(deg)": 13.79028647824771,
        "RAAN(deg)": 324.9885870582956,
        "Satellite Name": "Starlink Shell 1 1430",
        "Satellite Number": 1430,
        "Semi-Major Axis(m)": 6931778.249405717,
        "Time(s)": 220
    },
    {
        "Altitude(m)": 553469.0730346084,
        "Argument of Periapsis(deg)": 0.00801730502875845,
        "Eccentricity": 0.0,
        "Inclination(deg)": 53.0,
        "Latitude(deg)": 11.467617777172226,
        "Longitude(deg)": -127.19740839453117,
        "Mean Anomaly(deg)": 14.417117681804458,
        "RAAN(deg)": 324.98806828821813,
        "Satellite Name": "Starlink Shell 1 1430",
        "Satellite Number": 1430,
        "Semi-Major Axis(m)": 6931778.249405717,
        "Time(s)": 230
    },
    {
        "Altitude(m)": 553468.3365119759,
        "Argument of Periapsis(deg)": 0.008365883508269684,
        "Eccentricity": 0.0,
        "Inclination(deg)": 53.0,
        "Latitude(deg)": 11.965389763622094,
        "Longitude(deg)": -126.8458276407022,
        "Mean Anomaly(deg)": 15.043948885361154,
        "RAAN(deg)": 324.9875495181406,
        "Satellite Name": "Starlink Shell 1 1430",
        "Satellite Number": 1430,
        "Semi-Major Axis(m)": 6931778.249405717,
        "Time(s)": 240
    },
    {
        "Altitude(m)": 553470.2094855331,
        "Argument of Periapsis(deg)": 0.008714461987780921,
        "Eccentricity": 0.0,
        "Inclination(deg)": 53.0,
        "Latitude(deg)": 12.462597292642915,
        "Longitude(deg)": -126.49280515836362,
        "Mean Anomaly(deg)": 15.67078008891785,
        "RAAN(deg)": 324.98703074806315,
        "Satellite Name": "Starlink Shell 1 1430",
        "Satellite Number": 1430,
        "Semi-Major Axis(m)": 6931778.249405717,
        "Time(s)": 250
    },
    {
        "Altitude(m)": 553474.6682058276,
        "Argument of Periapsis(deg)": 0.009063040467292158,
        "Eccentricity": 0.0,
        "Inclination(deg)": 53.0,
        "Latitude(deg)": 12.959213747788208,
        "Longitude(deg)": -126.13827570162593,
        "Mean Anomaly(deg)": 16.297611292474596,
        "RAAN(deg)": 324.98651197798574,
        "Satellite Name": "Starlink Shell 1 1430",
        "Satellite Number": 1430,
        "Semi-Major Axis(m)": 6931778.249405717,
        "Time(s)": 260
    },
    {
        "Altitude(m)": 553481.6877423475,
        "Argument of Periapsis(deg)": 0.009411618946803396,
        "Eccentricity": 0.0,
        "Inclination(deg)": 53.0,
        "Latitude(deg)": 13.455212188798857,
        "Longitude(deg)": -125.78217287075219,
        "Mean Anomaly(deg)": 16.92444249603129,
        "RAAN(deg)": 324.9859932079082,
        "Satellite Name": "Starlink Shell 1 1430",
        "Satellite Number": 1430,
        "Semi-Major Axis(m)": 6931778.249405717,
        "Time(s)": 270
    },
    {
        "Altitude(m)": 553491.2419986288,
        "Argument of Periapsis(deg)": 0.009760197426314633,
        "Eccentricity": 0.0,
        "Inclination(deg)": 53.0,
        "Latitude(deg)": 13.950565336154456,
        "Longitude(deg)": -125.42443009382264,
        "Mean Anomaly(deg)": 17.551273699588037,
        "RAAN(deg)": 324.9854744378307,
        "Satellite Name": "Starlink Shell 1 1430",
        "Satellite Number": 1430,
        "Semi-Major Axis(m)": 6931778.249405717,
        "Time(s)": 280
    },
    {
        "Altitude(m)": 553503.303727917,
        "Argument of Periapsis(deg)": 0.01010877590582587,
        "Eccentricity": 0.0,
        "Inclination(deg)": 53.0,
        "Latitude(deg)": 14.4452455553144,
        "Longitude(deg)": -125.06498009548646,
        "Mean Anomaly(deg)": 18.178104903144735,
        "RAAN(deg)": 324.9849556677533,
        "Satellite Name": "Starlink Shell 1 1430",
        "Satellite Number": 1430,
        "Semi-Major Axis(m)": 6931778.249405717,
        "Time(s)": 290
    },
    {
        "Altitude(m)": 553517.8445494174,
        "Argument of Periapsis(deg)": 0.010457354385337106,
        "Eccentricity": 0.0,
        "Inclination(deg)": 53.0,
        "Latitude(deg)": 14.939224840638127,
        "Longitude(deg)": -124.70375436568726,
        "Mean Anomaly(deg)": 18.80493610670143,
        "RAAN(deg)": 324.98443689767583,
        "Satellite Name": "Starlink Shell 1 1430",
        "Satellite Number": 1430,
        "Semi-Major Axis(m)": 6931778.249405717,
        "Time(s)": 300
    },
    {
        "Altitude(m)": 553534.8349650631,
        "Argument of Periapsis(deg)": 0.010805932864848343,
        "Eccentricity": 0.0,
        "Inclination(deg)": 53.0,
        "Latitude(deg)": 15.432474798974146,
        "Longitude(deg)": -124.34068414125262,
        "Mean Anomaly(deg)": 19.431767310258174,
        "RAAN(deg)": 324.9839181275983,
        "Satellite Name": "Starlink Shell 1 1430",
        "Satellite Number": 1430,
        "Semi-Major Axis(m)": 6931778.249405717,
        "Time(s)": 310
    },
    {
        "Altitude(m)": 553554.2443768526,
        "Argument of Periapsis(deg)": 0.01115451134435958,
        "Eccentricity": 0.0,
        "Inclination(deg)": 53.0,
        "Latitude(deg)": 15.924966632900688,
        "Longitude(deg)": -123.97569987462244,
        "Mean Anomaly(deg)": 20.05859851381487,
        "RAAN(deg)": 324.98339935752085,
        "Satellite Name": "Starlink Shell 1 1430",
        "Satellite Number": 1430,
        "Semi-Major Axis(m)": 6931778.249405717,
        "Time(s)": 320
    },
    {
        "Altitude(m)": 553576.0411046891,
        "Argument of Periapsis(deg)": 0.011503089823870818,
        "Eccentricity": 0.0,
        "Inclination(deg)": 53.0,
        "Latitude(deg)": 16.416671123608353,
        "Longitude(deg)": -123.60873070261033,
        "Mean Anomaly(deg)": 20.68542971737162,
        "RAAN(deg)": 324.9828805874434,
        "Satellite Name": "Starlink Shell 1 1430",
        "Satellite Number": 1430,
        "Semi-Major Axis(m)": 6931778.249405717,
        "Time(s)": 330
    },
    {
        "Altitude(m)": 553600.1924047633,
        "Argument of Periapsis(deg)": 0.011851668303382053,
        "Eccentricity": 0.0,
        "Inclination(deg)": 53.0,
        "Latitude(deg)": 16.90755861341343,
        "Longitude(deg)": -123.23970542809637,
        "Mean Anomaly(deg)": 21.312260920928313,
        "RAAN(deg)": 324.9823618173659,
        "Satellite Name": "Starlink Shell 1 1430",
        "Satellite Number": 1430,
        "Semi-Major Axis(m)": 6931778.249405717,
        "Time(s)": 340
    },
    {
        "Altitude(m)": 553626.664488436,
        "Argument of Periapsis(deg)": 0.012200246782893292,
        "Eccentricity": 0.0,
        "Inclination(deg)": 53.0,
        "Latitude(deg)": 17.397598987885956,
        "Longitude(deg)": -122.86855198893434,
        "Mean Anomaly(deg)": 21.93909212448501,
        "RAAN(deg)": 324.98184304728846,
        "Satellite Name": "Starlink Shell 1 1430",
        "Satellite Number": 1430,
        "Semi-Major Axis(m)": 6931778.249405717,
        "Time(s)": 350
    },
    {
        "Altitude(m)": 553655.4225416211,
        "Argument of Periapsis(deg)": 0.012548825262404526,
        "Eccentricity": 0.0,
        "Inclination(deg)": 53.0,
        "Latitude(deg)": 17.886761657582163,
        "Longitude(deg)": -122.49519692697847,
        "Mean Anomaly(deg)": 22.565923328041755,
        "RAAN(deg)": 324.98132427721094,
        "Satellite Name": "Starlink Shell 1 1430",
        "Satellite Number": 1430,
        "Semi-Major Axis(m)": 6931778.249405717,
        "Time(s)": 360
    },
    {
        "Altitude(m)": 553686.4307446625,
        "Argument of Periapsis(deg)": 0.012897403741915765,
        "Eccentricity": 0.0,
        "Inclination(deg)": 53.0,
        "Latitude(deg)": 18.375015539370946,
        "Longitude(deg)": -122.11956637013681,
        "Mean Anomaly(deg)": 23.19275453159845,
        "RAAN(deg)": 324.9808055071335,
        "Satellite Name": "Starlink Shell 1 1430",
        "Satellite Number": 1430,
        "Semi-Major Axis(m)": 6931778.249405717,
        "Time(s)": 370
    }
]